STARLINK-3932           
1 52576U 22051AS  26068.54636338 -.00000389  00000+0 -63738-5 0  9998
2 52576  53.2167 119.7648 0001352  98.0389 262.0756 15.08839663211567
LEMUR-2-SIERRINI        
1 60579U 24149DR  26068.80891719  .00014386  00000+0  92040-3 0  9991
2 60579  97.6873 151.1225 0006580 147.8458 212.3173 15.08682764 85461
