[{"OBJECT_NAME":"STARLINK-3932","OBJECT_ID":"2022-051AS","EPOCH":"2026-03-09T13:06:45.796032","MEAN_MOTION":15.08839663,"ECCENTRICITY":0.0001352,"INCLINATION":53.2167,"RA_OF_ASC_NODE":119.7648,"ARG_OF_PERICENTER":98.0389,"MEAN_ANOMALY":262.0756,"EPHEMERIS_TYPE":0,"CLASSIFICATION_TYPE":"U","NORAD_CAT_ID":52576,"ELEMENT_SET_NO":999,"REV_AT_EPOCH":21156,"BSTAR":-6.3738e-6,"MEAN_MOTION_DOT":-3.89e-6,"MEAN_MOTION_DDOT":0},{"OBJECT_NAME":"LEMUR-2-SIERRINI","OBJECT_ID":"2024-149DR","EPOCH":"2026-03-09T19:24:50.445216","MEAN_MOTION":15.08682764,"ECCENTRICITY":0.00065795,"INCLINATION":97.6873,"RA_OF_ASC_NODE":151.1225,"ARG_OF_PERICENTER":147.8458,"MEAN_ANOMALY":212.3173,"EPHEMERIS_TYPE":0,"CLASSIFICATION_TYPE":"U","NORAD_CAT_ID":60579,"ELEMENT_SET_NO":999,"REV_AT_EPOCH":8546,"BSTAR":0.00092040134,"MEAN_MOTION_DOT":0.00014386,"MEAN_MOTION_DDOT":0}]
